TJS-4                   
1 44637U 19070A   26062.81700194 -.00000183  00000+0  00000+0 0  9998
2 44637   0.0710 276.9137 0007443  95.4405 166.8460  1.00270398 23415
BEIDOU-3 IGSO-3         
1 44709U 19073A   26062.00508347 -.00000154  00000+0  00000+0 0  9996
2 44709  54.9806 282.0451 0040489 189.0046 170.9845  1.00269768 23393
TIBA-1                  
1 44800U 19080A   26062.80746856  .00000142  00000+0  00000+0 0  9999
2 44800   0.0623 336.3004 0001919   5.1855 146.2790  1.00275748 23000
INMARSAT GX5            
1 44801U 19080B   26062.80261520  .00000061  00000+0  00000+0 0  9990
2 44801   0.0490  14.7119 0001945 332.1776 114.5806  1.00271572  5738
JCSAT-18 (KACIFIC 1)    
1 44868U 19091A   26062.75884830 -.00000214  00000+0  00000+0 0  9995
2 44868   0.0439 309.9311 0000308  39.8163 234.9710  1.00272501 22957
ELEKTRO-L 3             
1 44903U 19095A   26062.74420156  .00000000  00000+0  00000+0 0  9997
2 44903   0.0053 222.7671 0001721 106.2472 176.3888  1.00268135 22652
SHIJIAN-20 (SJ-20)      
1 44910U 19097A   26062.72423153 -.00000072  00000+0  00000+0 0  9995
2 44910   4.6480  76.3578 0000313  55.9142   6.4763  1.00081657 22649
TJS-5                   
1 44978U 20002A   26062.87753244 -.00000356  00000+0  00000+0 0  9995
2 44978   0.2806 269.7607 0004113 120.8605 194.4458  1.00272745 22645
GSAT-30                 
1 45026U 20005A   26062.50186197 -.00000180  00000+0  00000+0 0  9995
2 45026   0.0216 239.1316 0000479 214.0220 331.7482  1.00276487 22449
EUTELSAT KONNECT        
1 45027U 20005B   26062.80183520  .00000035  00000+0  00000+0 0  9994
2 45027   0.0668  97.9099 0001068 222.6433 136.8477  1.00271071 23279
JCSAT-17                
1 45245U 20013A   26062.71989259 -.00000328  00000+0  00000+0 0  9994
2 45245   5.3950 355.8307 0004816 350.3366 210.4248  1.00270085 22176
GEO-KOMPSAT-2B          
1 45246U 20013B   26062.54061360 -.00000359  00000+0  00000+0 0  9994
2 45246   0.0445 312.4949 0001852   5.5949 166.0720  1.00269880 22220
BEIDOU-3 G2             
1 45344U 20017A   26062.81630861 -.00000152  00000+0  00000+0 0  9996
2 45344   2.6532  45.5615 0002743 302.7501 187.1589  1.00271181 22206
BEIDOU-3 G3             
1 45807U 20040A   26062.87753244 -.00000366  00000+0  00000+0 0  9990
2 45807   2.1888  67.1175 0004284 315.6999 205.1966  1.00275701 21016
APSTAR-6D               
1 45863U 20045A   26062.82694310 -.00000333  00000+0  00000+0 0  9994
2 45863   0.0385 105.8709 0002136   2.8315 124.5965  1.00253356 20802
KOREASAT 116            
1 45920U 20048A   26062.75217493  .00000000  00000+0  00000+0 0  9996
2 45920   0.0205 153.9287 0001091 193.3521 201.2401  1.00269963 20580
EXPRESS 103             
1 45985U 20053A   26062.03508354 -.00000297  00000+0  00000+0 0  9992
2 45985   0.0351 290.3437 0000903 355.5788 343.9949  1.00273535 20585
