[{"OBJECT_NAME":"TJS-4","OBJECT_ID":"2019-070A","EPOCH":"2026-03-03T19:36:28.967616","MEAN_MOTION":1.00270398,"ECCENTRICITY":0.0007443,"INCLINATION":0.071,"RA_OF_ASC_NODE":276.9137,"ARG_OF_PERICENTER":95.4405,"MEAN_ANOMALY":166.846,"EPHEMERIS_TYPE":0,"CLASSIFICATION_TYPE":"U","NORAD_CAT_ID":44637,"ELEMENT_SET_NO":999,"REV_AT_EPOCH":2341,"BSTAR":0,"MEAN_MOTION_DOT":-1.83e-6,"MEAN_MOTION_DDOT":0},{"OBJECT_NAME":"BEIDOU-3 IGSO-3","OBJECT_ID":"2019-073A","EPOCH":"2026-03-03T00:07:19.211808","MEAN_MOTION":1.00269768,"ECCENTRICITY":0.0040489,"INCLINATION":54.9806,"RA_OF_ASC_NODE":282.0451,"ARG_OF_PERICENTER":189.0046,"MEAN_ANOMALY":170.9845,"EPHEMERIS_TYPE":0,"CLASSIFICATION_TYPE":"U","NORAD_CAT_ID":44709,"ELEMENT_SET_NO":999,"REV_AT_EPOCH":2339,"BSTAR":0,"MEAN_MOTION_DOT":-1.54e-6,"MEAN_MOTION_DDOT":0},{"OBJECT_NAME":"TIBA-1","OBJECT_ID":"2019-080A","EPOCH":"2026-03-03T19:22:45.283584","MEAN_MOTION":1.00275748,"ECCENTRICITY":0.0001919,"INCLINATION":0.0623,"RA_OF_ASC_NODE":336.3004,"ARG_OF_PERICENTER":5.1855,"MEAN_ANOMALY":146.279,"EPHEMERIS_TYPE":0,"CLASSIFICATION_TYPE":"U","NORAD_CAT_ID":44800,"ELEMENT_SET_NO":999,"REV_AT_EPOCH":2300,"BSTAR":0,"MEAN_MOTION_DOT":1.42e-6,"MEAN_MOTION_DDOT":0},{"OBJECT_NAME":"INMARSAT GX5","OBJECT_ID":"2019-080B","EPOCH":"2026-03-03T19:15:45.953280","MEAN_MOTION":1.00271572,"ECCENTRICITY":0.0001945,"INCLINATION":0.049,"RA_OF_ASC_NODE":14.7119,"ARG_OF_PERICENTER":332.1776,"MEAN_ANOMALY":114.5806,"EPHEMERIS_TYPE":0,"CLASSIFICATION_TYPE":"U","NORAD_CAT_ID":44801,"ELEMENT_SET_NO":999,"REV_AT_EPOCH":573,"BSTAR":0,"MEAN_MOTION_DOT":6.1e-7,"MEAN_MOTION_DDOT":0},{"OBJECT_NAME":"JCSAT-18 (KACIFIC 1)","OBJECT_ID":"2019-091A","EPOCH":"2026-03-03T18:12:44.493120","MEAN_MOTION":1.00272501,"ECCENTRICITY":3.08e-5,"INCLINATION":0.0439,"RA_OF_ASC_NODE":309.9311,"ARG_OF_PERICENTER":39.8163,"MEAN_ANOMALY":234.971,"EPHEMERIS_TYPE":0,"CLASSIFICATION_TYPE":"U","NORAD_CAT_ID":44868,"ELEMENT_SET_NO":999,"REV_AT_EPOCH":2295,"BSTAR":0,"MEAN_MOTION_DOT":-2.14e-6,"MEAN_MOTION_DDOT":0},{"OBJECT_NAME":"ELEKTRO-L 3","OBJECT_ID":"2019-095A","EPOCH":"2026-03-03T17:51:39.014784","MEAN_MOTION":1.00268135,"ECCENTRICITY":0.0001721,"INCLINATION":0.0053,"RA_OF_ASC_NODE":222.7671,"ARG_OF_PERICENTER":106.2472,"MEAN_ANOMALY":176.3888,"EPHEMERIS_TYPE":0,"CLASSIFICATION_TYPE":"U","NORAD_CAT_ID":44903,"ELEMENT_SET_NO":999,"REV_AT_EPOCH":2265,"BSTAR":0,"MEAN_MOTION_DOT":0,"MEAN_MOTION_DDOT":0},{"OBJECT_NAME":"SHIJIAN-20 (SJ-20)","OBJECT_ID":"2019-097A","EPOCH":"2026-03-03T17:22:53.604192","MEAN_MOTION":1.00081657,"ECCENTRICITY":3.13e-5,"INCLINATION":4.648,"RA_OF_ASC_NODE":76.3578,"ARG_OF_PERICENTER":55.9142,"MEAN_ANOMALY":6.4763,"EPHEMERIS_TYPE":0,"CLASSIFICATION_TYPE":"U","NORAD_CAT_ID":44910,"ELEMENT_SET_NO":999,"REV_AT_EPOCH":2264,"BSTAR":0,"MEAN_MOTION_DOT":-7.2e-7,"MEAN_MOTION_DDOT":0},{"OBJECT_NAME":"TJS-5","OBJECT_ID":"2020-002A","EPOCH":"2026-03-03T21:03:38.802816","MEAN_MOTION":1.00272745,"ECCENTRICITY":0.0004113,"INCLINATION":0.2806,"RA_OF_ASC_NODE":269.7607,"ARG_OF_PERICENTER":120.8605,"MEAN_ANOMALY":194.4458,"EPHEMERIS_TYPE":0,"CLASSIFICATION_TYPE":"U","NORAD_CAT_ID":44978,"ELEMENT_SET_NO":999,"REV_AT_EPOCH":2264,"BSTAR":0,"MEAN_MOTION_DOT":-3.56e-6,"MEAN_MOTION_DDOT":0},{"OBJECT_NAME":"GSAT-30","OBJECT_ID":"2020-005A","EPOCH":"2026-03-03T12:02:40.874208","MEAN_MOTION":1.00276487,"ECCENTRICITY":4.799e-5,"INCLINATION":0.0216,"RA_OF_ASC_NODE":239.1316,"ARG_OF_PERICENTER":214.022,"MEAN_ANOMALY":331.7482,"EPHEMERIS_TYPE":0,"CLASSIFICATION_TYPE":"U","NORAD_CAT_ID":45026,"ELEMENT_SET_NO":999,"REV_AT_EPOCH":2244,"BSTAR":0,"MEAN_MOTION_DOT":-1.8e-6,"MEAN_MOTION_DDOT":0},{"OBJECT_NAME":"EUTELSAT KONNECT","OBJECT_ID":"2020-005B","EPOCH":"2026-03-03T19:14:38.561280","MEAN_MOTION":1.00271071,"ECCENTRICITY":0.0001068,"INCLINATION":0.0668,"RA_OF_ASC_NODE":97.9099,"ARG_OF_PERICENTER":222.6433,"MEAN_ANOMALY":136.8477,"EPHEMERIS_TYPE":0,"CLASSIFICATION_TYPE":"U","NORAD_CAT_ID":45027,"ELEMENT_SET_NO":999,"REV_AT_EPOCH":2327,"BSTAR":0,"MEAN_MOTION_DOT":3.5e-7,"MEAN_MOTION_DDOT":0},{"OBJECT_NAME":"JCSAT-17","OBJECT_ID":"2020-013A","EPOCH":"2026-03-03T17:16:38.719776","MEAN_MOTION":1.00270085,"ECCENTRICITY":0.0004816,"INCLINATION":5.395,"RA_OF_ASC_NODE":355.8307,"ARG_OF_PERICENTER":350.3366,"MEAN_ANOMALY":210.4248,"EPHEMERIS_TYPE":0,"CLASSIFICATION_TYPE":"U","NORAD_CAT_ID":45245,"ELEMENT_SET_NO":999,"REV_AT_EPOCH":2217,"BSTAR":0,"MEAN_MOTION_DOT":-3.28e-6,"MEAN_MOTION_DDOT":0},{"OBJECT_NAME":"GEO-KOMPSAT-2B","OBJECT_ID":"2020-013B","EPOCH":"2026-03-03T12:58:29.015040","MEAN_MOTION":1.0026988,"ECCENTRICITY":0.0001852,"INCLINATION":0.0445,"RA_OF_ASC_NODE":312.4949,"ARG_OF_PERICENTER":5.5949,"MEAN_ANOMALY":166.072,"EPHEMERIS_TYPE":0,"CLASSIFICATION_TYPE":"U","NORAD_CAT_ID":45246,"ELEMENT_SET_NO":999,"REV_AT_EPOCH":2222,"BSTAR":0,"MEAN_MOTION_DOT":-3.59e-6,"MEAN_MOTION_DDOT":0},{"OBJECT_NAME":"BEIDOU-3 G2","OBJECT_ID":"2020-017A","EPOCH":"2026-03-03T19:35:29.063904","MEAN_MOTION":1.00271181,"ECCENTRICITY":0.0002743,"INCLINATION":2.6532,"RA_OF_ASC_NODE":45.5615,"ARG_OF_PERICENTER":302.7501,"MEAN_ANOMALY":187.1589,"EPHEMERIS_TYPE":0,"CLASSIFICATION_TYPE":"U","NORAD_CAT_ID":45344,"ELEMENT_SET_NO":999,"REV_AT_EPOCH":2220,"BSTAR":0,"MEAN_MOTION_DOT":-1.52e-6,"MEAN_MOTION_DDOT":0},{"OBJECT_NAME":"BEIDOU-3 G3","OBJECT_ID":"2020-040A","EPOCH":"2026-03-03T21:03:38.802816","MEAN_MOTION":1.00275701,"ECCENTRICITY":0.0004284,"INCLINATION":2.1888,"RA_OF_ASC_NODE":67.1175,"ARG_OF_PERICENTER":315.6999,"MEAN_ANOMALY":205.1966,"EPHEMERIS_TYPE":0,"CLASSIFICATION_TYPE":"U","NORAD_CAT_ID":45807,"ELEMENT_SET_NO":999,"REV_AT_EPOCH":2101,"BSTAR":0,"MEAN_MOTION_DOT":-3.66e-6,"MEAN_MOTION_DDOT":0},{"OBJECT_NAME":"APSTAR-6D","OBJECT_ID":"2020-045A","EPOCH":"2026-03-03T19:50:47.883840","MEAN_MOTION":1.00253356,"ECCENTRICITY":0.0002136,"INCLINATION":0.0385,"RA_OF_ASC_NODE":105.8709,"ARG_OF_PERICENTER":2.8315,"MEAN_ANOMALY":124.5965,"EPHEMERIS_TYPE":0,"CLASSIFICATION_TYPE":"U","NORAD_CAT_ID":45863,"ELEMENT_SET_NO":999,"REV_AT_EPOCH":2080,"BSTAR":0,"MEAN_MOTION_DOT":-3.33e-6,"MEAN_MOTION_DDOT":0},{"OBJECT_NAME":"KOREASAT 116","OBJECT_ID":"2020-048A","EPOCH":"2026-03-03T18:03:07.913952","MEAN_MOTION":1.00269963,"ECCENTRICITY":0.0001091,"INCLINATION":0.0205,"RA_OF_ASC_NODE":153.9287,"ARG_OF_PERICENTER":193.3521,"MEAN_ANOMALY":201.2401,"EPHEMERIS_TYPE":0,"CLASSIFICATION_TYPE":"U","NORAD_CAT_ID":45920,"ELEMENT_SET_NO":999,"REV_AT_EPOCH":2058,"BSTAR":0,"MEAN_MOTION_DOT":0,"MEAN_MOTION_DDOT":0},{"OBJECT_NAME":"EXPRESS 103","OBJECT_ID":"2020-053A","EPOCH":"2026-03-03T00:50:31.217856","MEAN_MOTION":1.00273535,"ECCENTRICITY":9.037e-5,"INCLINATION":0.0351,"RA_OF_ASC_NODE":290.3437,"ARG_OF_PERICENTER":355.5788,"MEAN_ANOMALY":343.9949,"EPHEMERIS_TYPE":0,"CLASSIFICATION_TYPE":"U","NORAD_CAT_ID":45985,"ELEMENT_SET_NO":999,"REV_AT_EPOCH":2058,"BSTAR":0,"MEAN_MOTION_DOT":-2.97e-6,"MEAN_MOTION_DDOT":0}]
